[{"OBJECT_NAME":"STARLINK-35005","OBJECT_ID":"2025-194Y","EPOCH":"2026-03-09T19:58:45.388128","MEAN_MOTION":15.05651135,"ECCENTRICITY":0.00013149,"INCLINATION":97.6018,"RA_OF_ASC_NODE":284.6044,"ARG_OF_PERICENTER":80.5935,"MEAN_ANOMALY":279.544,"EPHEMERIS_TYPE":0,"CLASSIFICATION_TYPE":"U","NORAD_CAT_ID":65456,"ELEMENT_SET_NO":999,"REV_AT_EPOCH":2967,"BSTAR":0.0002459349,"MEAN_MOTION_DOT":3.49e-5,"MEAN_MOTION_DDOT":0},{"OBJECT_NAME":"DMSP 5D-2 F13 DEB","OBJECT_ID":"1995-015HF","EPOCH":"2026-03-08T15:33:20.356128","MEAN_MOTION":15.01113693,"ECCENTRICITY":0.00168904,"INCLINATION":98.8624,"RA_OF_ASC_NODE":112.9575,"ARG_OF_PERICENTER":188.2899,"MEAN_ANOMALY":171.8045,"EPHEMERIS_TYPE":0,"CLASSIFICATION_TYPE":"U","NORAD_CAT_ID":42289,"ELEMENT_SET_NO":999,"REV_AT_EPOCH":56056,"BSTAR":0.014483506,"MEAN_MOTION_DOT":0.00190863,"MEAN_MOTION_DDOT":0}]
